[{"OBJECT_NAME":"STARLINK-5564","OBJECT_ID":"2023-046AU","EPOCH":"2026-03-09T22:00:01.999584","MEAN_MOTION":15.11676593,"ECCENTRICITY":0.00016086,"INCLINATION":43.0004,"RA_OF_ASC_NODE":144.6022,"ARG_OF_PERICENTER":272.6422,"MEAN_ANOMALY":233.8185,"EPHEMERIS_TYPE":0,"CLASSIFICATION_TYPE":"U","NORAD_CAT_ID":56134,"ELEMENT_SET_NO":999,"REV_AT_EPOCH":578,"BSTAR":0.044796839,"MEAN_MOTION_DOT":0.0083359,"MEAN_MOTION_DDOT":0},{"OBJECT_NAME":"OBJECT AB","OBJECT_ID":"2025-313AB","EPOCH":"2026-03-09T21:33:15.622272","MEAN_MOTION":15.20494709,"ECCENTRICITY":0.00144255,"INCLINATION":97.4026,"RA_OF_ASC_NODE":145.1102,"ARG_OF_PERICENTER":5.4731,"MEAN_ANOMALY":354.6659,"EPHEMERIS_TYPE":0,"CLASSIFICATION_TYPE":"U","NORAD_CAT_ID":67273,"ELEMENT_SET_NO":999,"REV_AT_EPOCH":1084,"BSTAR":0.00020492613,"MEAN_MOTION_DOT":4.42e-5,"MEAN_MOTION_DDOT":0}]
